IRIDIUM 126             
1 42809U 17039G   24044.90290121  .00000629  00000+0  21758-3 0  9993
2 42809  86.4016 350.6532 0002028  75.7201 284.4220 14.34220229347508
IRIDIUM 124             
1 42810U 17039H   24044.96577893  .00000891  00000+0  25893-3 0  9990
2 42810  86.4475 287.3779 0002067  92.1189 268.0248 14.43289027351907
IRIDIUM 128             
1 42811U 17039J   24044.68433017  .00000586  00000+0  20204-3 0  9991
2 42811  86.3977  22.2466 0001951  87.4074 272.7346 14.34220760347505
IRIDIUM 121             
1 42812U 17039K   24044.92192999  .00000363  00000+0  12258-3 0  9993
2 42812  86.4017 350.6670 0002150  83.9469 276.1971 14.34220049347386
IRIDIUM 133             
1 42955U 17061A   24044.85557836  .00000030  00000+0  36211-5 0  9991
2 42955  86.3980  22.2710 0002092  83.5476 276.5957 14.34220602332329
IRIDIUM 100             
1 42956U 17061B   24044.91900948  .00000458  00000+0  15634-3 0  9993
2 42956  86.3978  22.1834 0002073  86.5845 273.5588 14.34219659332333
IRIDIUM 122             
1 42957U 17061C   24044.95706598  .00000001  00000+0 -66194-5 0  9997
2 42957  86.3975  22.1657 0001807  88.0574 272.0829 14.34217336332347
IRIDIUM 129             
1 42958U 17061D   24044.91266666  .00000072  00000+0  18728-4 0  9997
2 42958  86.3976  22.2422 0002023  85.4781 274.6646 14.34220053332358
